STARLINK-1222_new
1 15228C 20012BC  21326.12507964  .00009710  00000-0  65068-3 0  3263
2 15228  53.0527 208.1753 0001974  74.8797  81.1651 15.06384603    13
STARLINK-1222_old
1 25228C 20012BC  21325.12753943  .00002833  00000-0  18985-3 0  3256
2 25228  53.0528 212.6534 0001953  73.3777  70.0139 15.06384089    16
